{
  "type": "FeatureCollection",
  "features": [
    {
      "type": "Feature",
      "properties": {
        "norad_id": 66813,
        "name": "STARLINK-36042",
        "group": "last-30-days",
        "lat": -42.95370113606066,
        "lon": 118.36737265616645,
        "alt_km": 380.540832927707,
        "timestamp": "2025-12-20T07:33:49.514434+00:00",
        "meta_object_name": "STARLINK-36042",
        "meta_object_id": "2025-278Y",
        "meta_epoch": "2025-12-19T22:00:01.999584",
        "meta_mean_motion": 15.6496541,
        "meta_eccentricity": 0.00010897,
        "meta_inclination": 42.9991,
        "meta_ra_of_asc_node": 208.3629,
        "meta_arg_of_pericenter": 271.8495,
        "meta_mean_anomaly": 273.5027,
        "meta_ephemeris_type": 0,
        "meta_classification_type": "U",
        "meta_norad_cat_id": 66813,
        "meta_element_set_no": 999,
        "meta_rev_at_epoch": 411,
        "meta_bstar": -0.021987073,
        "meta_mean_motion_dot": -0.01956597,
        "meta_mean_motion_ddot": 0,
        "tle_line1": "1 66813U 25278Y   25353.91668981 -.01956597  00000+0 -21987-1 0  9995",
        "tle_line2": "2 66813  42.9991 208.3629 0001089 271.8495 273.5027 15.64965410  4117"
      },
      "geometry": {
        "type": "Point",
        "coordinates": [
          118.36737265616645,
          -42.95370113606066
        ]
      }
    },
    {
      "type": "Feature",
      "properties": {
        "norad_id": 66814,
        "name": "STARLINK-35984",
        "group": "last-30-days",
        "lat": -41.576716554626046,
        "lon": 133.77292389943116,
        "alt_km": 380.4316592660116,
        "timestamp": "2025-12-20T07:33:49.514446+00:00",
        "meta_object_name": "STARLINK-35984",
        "meta_object_id": "2025-278Z",
        "meta_epoch": "2025-12-19T22:00:01.999584",
        "meta_mean_motion": 15.64969851,
        "meta_eccentricity": 0.00012267,
        "meta_inclination": 42.9991,
        "meta_ra_of_asc_node": 208.3338,
        "meta_arg_of_pericenter": 267.0191,
        "meta_mean_anomaly": 289.8323,
        "meta_ephemeris_type": 0,
        "meta_classification_type": "U",
        "meta_norad_cat_id": 66814,
        "meta_element_set_no": 999,
        "meta_rev_at_epoch": 420,
        "meta_bstar": -0.022051463,
        "meta_mean_motion_dot": -0.01962051,
        "meta_mean_motion_ddot": 0,
        "tle_line1": "1 66814U 25278Z   25353.91668981 -.01962051  00000+0 -22051-1 0  9991",
        "tle_line2": "2 66814  42.9991 208.3338 0001226 267.0191 289.8323 15.64969851  4200"
      },
      "geometry": {
        "type": "Point",
        "coordinates": [
          133.77292389943116,
          -41.576716554626046
        ]
      }
    },
    {
      "type": "Feature",
      "properties": {
        "norad_id": 66815,
        "name": "STARLINK-35985",
        "group": "last-30-days",
        "lat": -41.948857032317036,
        "lon": 131.25938959144625,
        "alt_km": 380.4660152252218,
        "timestamp": "2025-12-20T07:33:49.514457+00:00",
        "meta_object_name": "STARLINK-35985",
        "meta_object_id": "2025-278AA",
        "meta_epoch": "2025-12-19T22:00:01.999584",
        "meta_mean_motion": 15.64964742,
        "meta_eccentricity": 0.0001201,
        "meta_inclination": 42.9992,
        "meta_ra_of_asc_node": 208.3384,
        "meta_arg_of_pericenter": 264.8224,
        "meta_mean_anomaly": 290.114,
        "meta_ephemeris_type": 0,
        "meta_classification_type": "U",
        "meta_norad_cat_id": 66815,
        "meta_element_set_no": 999,
        "meta_rev_at_epoch": 420,
        "meta_bstar": -0.021975076,
        "meta_mean_motion_dot": -0.0195569,
        "meta_mean_motion_ddot": 0,
        "tle_line1": "1 66815U 25278AA  25353.91668981 -.01955690  00000+0 -21975-1 0  9997",
        "tle_line2": "2 66815  42.9992 208.3384 0001201 264.8224 290.1140 15.64964742  4204"
      },
      "geometry": {
        "type": "Point",
        "coordinates": [
          131.25938959144625,
          -41.948857032317036
        ]
      }
    },
    {
      "type": "Feature",
      "properties": {
        "norad_id": 66816,
        "name": "STARLINK-36098",
        "group": "last-30-days",
        "lat": -42.86982691630515,
        "lon": 120.97376078176391,
        "alt_km": 380.4976678146586,
        "timestamp": "2025-12-20T07:33:49.514491+00:00",
        "meta_object_name": "STARLINK-36098",
        "meta_object_id": "2025-278AB",
        "meta_epoch": "2025-12-19T22:00:01.999584",
        "meta_mean_motion": 15.64970295,
        "meta_eccentricity": 0.00011439,
        "meta_inclination": 42.9992,
        "meta_ra_of_asc_node": 208.358,
        "meta_arg_of_pericenter": 269.7315,
        "meta_mean_anomaly": 277.5325,
        "meta_ephemeris_type": 0,
        "meta_classification_type": "U",
        "meta_norad_cat_id": 66816,
        "meta_element_set_no": 999,
        "meta_rev_at_epoch": 395,
        "meta_bstar": -0.022030943,
        "meta_mean_motion_dot": -0.01960414,
        "meta_mean_motion_ddot": 0,
        "tle_line1": "1 66816U 25278AB  25353.91668981 -.01960414  00000+0 -22031-1 0  9992",
        "tle_line2": "2 66816  42.9992 208.3580 0001143 269.7315 277.5325 15.64970295  3958"
      },
      "geometry": {
        "type": "Point",
        "coordinates": [
          120.97376078176391,
          -42.86982691630515
        ]
      }
    },
    {
      "type": "Feature",
      "properties": {
        "norad_id": 66817,
        "name": "STARLINK-35995",
        "group": "last-30-days",
        "lat": -42.524902510968346,
        "lon": 126.15520482785925,
        "alt_km": 380.4983714395594,
        "timestamp": "2025-12-20T07:33:49.514502+00:00",
        "meta_object_name": "STARLINK-35995",
        "meta_object_id": "2025-278AC",
        "meta_epoch": "2025-12-19T22:00:01.999584",
        "meta_mean_motion": 15.6496913,
        "meta_eccentricity": 0.00011534,
        "meta_inclination": 42.9993,
        "meta_ra_of_asc_node": 208.348,
        "meta_arg_of_pericenter": 268.0159,
        "meta_mean_anomaly": 283.0864,
        "meta_ephemeris_type": 0,
        "meta_classification_type": "U",
        "meta_norad_cat_id": 66817,
        "meta_element_set_no": 999,
        "meta_rev_at_epoch": 411,
        "meta_bstar": -0.022063687,
        "meta_mean_motion_dot": -0.01962906,
        "meta_mean_motion_ddot": 0,
        "tle_line1": "1 66817U 25278AC  25353.91668981 -.01962906  00000+0 -22064-1 0  9997",
        "tle_line2": "2 66817  42.9993 208.3480 0001153 268.0159 283.0864 15.64969130  4113"
      },
      "geometry": {
        "type": "Point",
        "coordinates": [
          126.15520482785925,
          -42.524902510968346
        ]
      }
    },
    {
      "type": "Feature",
      "properties": {
        "norad_id": 66818,
        "name": "STARLINK-35994",
        "group": "last-30-days",
        "lat": -42.726551315278684,
        "lon": 123.57317927511531,
        "alt_km": 380.4901386212505,
        "timestamp": "2025-12-20T07:33:49.514512+00:00",
        "meta_object_name": "STARLINK-35994",
        "meta_object_id": "2025-278AD",
        "meta_epoch": "2025-12-19T22:00:01.999584",
        "meta_mean_motion": 15.64969989,
        "meta_eccentricity": 0.00011754,
        "meta_inclination": 42.9992,
        "meta_ra_of_asc_node": 208.3533,
        "meta_arg_of_pericenter": 266.0639,
        "meta_mean_anomaly": 283.1197,
        "meta_ephemeris_type": 0,
        "meta_classification_type": "U",
        "meta_norad_cat_id": 66818,
        "meta_element_set_no": 999,
        "meta_rev_at_epoch": 411,
        "meta_bstar": -0.022065304,
        "meta_mean_motion_dot": -0.01963108,
        "meta_mean_motion_ddot": 0,
        "tle_line1": "1 66818U 25278AD  25353.91668981 -.01963108  00000+0 -22065-1 0  9994",
        "tle_line2": "2 66818  42.9992 208.3533 0001175 266.0639 283.1197 15.64969989  4119"
      },
      "geometry": {
        "type": "Point",
        "coordinates": [
          123.57317927511531,
          -42.726551315278684
        ]
      }
    },
    {
      "type": "Feature",
      "properties": {
        "norad_id": 66819,
        "name": "STARLINK-35989",
        "group": "last-30-days",
        "lat": -42.26548712151422,
        "lon": 128.7184938887755,
        "alt_km": 380.48537123520146,
        "timestamp": "2025-12-20T07:33:49.514521+00:00",
        "meta_object_name": "STARLINK-35989",
        "meta_object_id": "2025-278AE",
        "meta_epoch": "2025-12-19T22:00:01.999584",
        "meta_mean_motion": 15.64968412,
        "meta_eccentricity": 0.00011592,
        "meta_inclination": 42.9994,
        "meta_ra_of_asc_node": 208.3432,
        "meta_arg_of_pericenter": 267.3046,
        "meta_mean_anomaly": 285.7126,
        "meta_ephemeris_type": 0,
        "meta_classification_type": "U",
        "meta_norad_cat_id": 66819,
        "meta_element_set_no": 999,
        "meta_rev_at_epoch": 411,
        "meta_bstar": -0.02201837,
        "meta_mean_motion_dot": -0.01959309,
        "meta_mean_motion_ddot": 0,
        "tle_line1": "1 66819U 25278AE  25353.91668981 -.01959309  00000+0 -22018-1 0  9991",
        "tle_line2": "2 66819  42.9994 208.3432 0001159 267.3046 285.7126 15.64968412  4118"
      },
      "geometry": {
        "type": "Point",
        "coordinates": [
          128.7184938887755,
          -42.26548712151422
        ]
      }
    }
  ]
}